NORAD_CAT_ID,OBJECT_NAME,OBJECT_TYPE,EPOCH,MEAN_MOTION,ECCENTRICITY,INCLINATION,RA_OF_ASC_NODE,ARG_OF_PERICENTER,MEAN_ANOMALY,BSTAR,MEAN_MOTION_DOT,MEAN_MOTION_DDOT,TLE_LINE0,TLE_LINE1,TLE_LINE2,SEMIMAJOR_AXIS,PERIOD,APOGEE,PERIGEE,DECAYED
51775.0,STARLINK-3620,PAYLOAD,2022-11-22 11:42:17,15.08836924,0.0002848,53.2175,340.5125,24.4661,335.6465,8.9068e-05,1.129e-05,0.0,0 STARLINK-3620,1 51775U 22017H   22326.48769987  .00001129  00000-0  89068-4 0  9998,2 51775  53.2175 340.5125 0002848  24.4661 335.6465 15.08836924 42414,6917.89,95.438,541.725,537.785,0.0
51775.0,STARLINK-3620,PAYLOAD,2022-11-22 13:17:40,15.08837593,0.0002853999999999,53.2175,340.2152,24.5688,335.5440000000001,9.6359e-05,1.245e-05,0.0,0 STARLINK-3620,1 51775U 22017H   22326.55393971  .00001245  00000-0  96359-4 0  9992,2 51775  53.2175 340.2152 0002854  24.5688 335.5440 15.08837593 40972,6917.888000000001,95.438,541.727,537.778,0.0
51775.0,STARLINK-3620,PAYLOAD,2022-11-23 09:57:41,15.08831308,0.0002934,53.2165,336.3494,23.5064,336.6062,0.00018187,2.607e-05,0.0,0 STARLINK-3620,1 51775U 22017H   22327.41506651  .00002607  00000-0  18187-3 0  9994,2 51775  53.2165 336.3494 0002934  23.5064 336.6062 15.08831308 42558,6917.906999999997,95.438,541.802,537.742,0.0
51775.0,STARLINK-3620,PAYLOAD,2022-11-23 17:54:37,15.08836612,0.0002945,53.2165,334.8628,23.8629,336.25,0.00019613,2.834e-05,0.0,0 STARLINK-3620,1 51775U 22017H   22327.74626579  .00002834  00000-0  19613-3 0  9999,2 51775  53.2165 334.8628 0002945  23.8629 336.2500 15.08836612 41153,6917.891,95.438,541.793,537.7180000000002,0.0
51775.0,STARLINK-3620,PAYLOAD,2022-11-24 06:37:42,15.08847226,0.0002949,53.2165,332.4835,24.4748,335.6384,0.00019356,2.794e-05,0.0,0 STARLINK-3620,1 51775U 22017H   22328.27618098  .00002794  00000-0  19356-3 0  9994,2 51775  53.2165 332.4835 0002949  24.4748 335.6384 15.08847226 42685,6917.858,95.437,541.763,537.683,0.0
51775.0,STARLINK-3620,PAYLOAD,2022-11-24 09:48:28,15.08850446,0.0002994,53.2165,331.8888,25.2386,334.8752,0.00023662,3.48e-05,0.0,0 STARLINK-3620,1 51775U 22017H   22328.40865928  .00003480  00000-0  23662-3 0  9993,2 51775  53.2165 331.8888 0002994  25.2386 334.8752 15.08850446 41253,6917.848000000001,95.437,541.785,537.6419999999998,0.0
51775.0,STARLINK-3620,PAYLOAD,2022-11-24 17:45:24,15.08841289,0.0003041,53.2165,330.4019,26.2865,333.8281,0.0001057,1.394e-05,0.0,0 STARLINK-3620,1 51775U 22017H   22328.73986355  .00001394  00000-0  10570-3 0  9993,2 51775  53.2165 330.4019 0003041  26.2865 333.8281 15.08841289 42758,6917.876,95.437,541.845,537.638,0.0
51775.0,STARLINK-3620,PAYLOAD,2022-11-25 11:14:38,15.0885048,0.0003045,53.2166,327.1309,27.0651,333.0499,0.00028207,4.205e-05,0.0,0 STARLINK-3620,1 51775U 22017H   22329.46849870  .00004205  00000-0  28207-3 0  9994,2 51775  53.2166 327.1309 0003045  27.0651 333.0499 15.08850480 41418,6917.848000000001,95.437,541.82,537.607,0.0
51775.0,STARLINK-3620,PAYLOAD,2022-11-25 17:36:10,15.08848624,0.0003067,53.2166,325.9414,27.6099,332.5056,0.00021593,3.151e-05,0.0,0 STARLINK-3620,1 51775U 22017H   22329.73345883  .00003151  00000-0  21593-3 0  9999,2 51775  53.2166 325.9414 0003067  27.6099 332.5056 15.08848624 41451,6917.854,95.437,541.841,537.597,0.0
51775.0,STARLINK-3620,PAYLOAD,2022-11-26 03:08:29,15.08850216,0.0003077,53.2165,324.157,28.7347,331.3814,0.0001628,2.304e-05,0.0,0 STARLINK-3620,1 51775U 22017H   22330.13089627  .00002304  00000-0  16280-3 0  9992,2 51775  53.2165 324.1570 0003077  28.7347 331.3814 15.08850216 42969,6917.849,95.437,541.8430000000002,537.586,0.0
51775.0,STARLINK-3620,PAYLOAD,2022-11-26 11:05:24,15.08854422,0.0003131,53.2167,322.67,29.2332,330.8835,0.0001624,2.298e-05,0.0,0 STARLINK-3620,1 51775U 22017H   22330.46209157  .00002298  00000-0  16240-3 0  9998,2 51775  53.2167 322.6700 0003131  29.2332 330.8835 15.08854422 41565,6917.8359999999975,95.437,541.867,537.535,0.0
51775.0,STARLINK-3620,PAYLOAD,2022-11-27 04:34:39,15.08846425,0.0002967,53.2167,319.3987,28.6364,331.4790000000001,0.00016364,2.317e-05,0.0,0 STARLINK-3620,1 51775U 22017H   22331.19073112  .00002317  00000-0  16364-3 0  9998,2 51775  53.2167 319.3987 0002967  28.6364 331.4790 15.08846425 43124,6917.861,95.437,541.778,537.673,0.0
51775.0,STARLINK-3620,PAYLOAD,2022-11-27 10:56:12,15.08834529,0.0003024,53.2173,318.2098,29.5428,330.5734,-6.1379e-05,-1.265e-05,0.0,0 STARLINK-3620,1 51775U 22017H   22331.45569986 -.00001265  00000-0 -61379-4 0  9996,2 51775  53.2173 318.2098 0003024  29.5428 330.5734 15.08834529 43162,6917.897,95.438,541.854,537.67,0.0
51775.0,STARLINK-3620,PAYLOAD,2022-11-28 15:33:08,15.08840135,0.000313,53.2171,312.8575,27.1864,332.9292,-4.0656e-05,-9.36e-06,0.0,0 STARLINK-3620,1 51775U 22017H   22332.64801851 -.00000936  00000-0 -40656-4 0  9997,2 51775  53.2171 312.8575 0003130  27.1864 332.9292 15.08840135 43341,6917.88,95.438,541.91,537.58,0.0
51775.0,STARLINK-3620,PAYLOAD,2022-11-29 09:02:23,15.08835762,0.0003117,53.2171,309.5862,27.3913,332.7243,0.00010055,1.312e-05,0.0,0 STARLINK-3620,1 51775U 22017H   22333.37665661  .00001312  00000-0  10055-3 0  9991,2 51775  53.2171 309.5862 0003117  27.3913 332.7243 15.08835762 42001,6917.893,95.438,541.915,537.602,0.0
51775.0,STARLINK-3620,PAYLOAD,2022-11-30 00:56:15,15.08830417,0.0003425,53.2175,306.6141,22.4692,337.6449,5.9209e-05,6.53e-06,0.0,0 STARLINK-3620,1 51775U 22017H   22334.03906594  .00000653  00000-0  59209-4 0  9990,2 51775  53.2175 306.6141 0003425  22.4692 337.6449 15.08830417 43550,6917.91,95.438,542.144,537.405,0.0
51775.0,STARLINK-3620,PAYLOAD,2022-11-30 07:17:48,15.08827255,0.0003495,53.2174,305.4249,22.2827,337.8316,-2.8054e-05,-7.35e-06,0.0,0 STARLINK-3620,1 51775U 22017H   22334.30403269 -.00000735  00000-0 -28054-4 0  9998,2 51775  53.2174 305.4249 0003495  22.2827 337.8316 15.08827255 42145,6917.919,95.438,542.202,537.367,0.0
51775.0,STARLINK-3620,PAYLOAD,2022-11-30 15:14:43,15.08834293,0.0003197,53.2172,303.9365,28.6687,331.4481,5.7411e-05,6.25e-06,0.0,0 STARLINK-3620,1 51775U 22017H   22334.63522687  .00000625  00000-0  57411-4 0  9995,2 51775  53.2172 303.9365 0003197  28.6687 331.4481 15.08834293 42196,6917.898,95.438,541.974,537.5509999999998,0.0
51775.0,STARLINK-3620,PAYLOAD,2022-12-01 10:19:20,15.08845376,0.0003114,53.2171,300.3677,29.4131,330.7036,1.0728e-05,-1.18e-06,0.0,0 STARLINK-3620,1 51775U 22017H   22335.43010099 -.00000118  00000-0  10728-4 0  9991,2 51775  53.2171 300.3677 0003114  29.4131 330.7036 15.08845376 42310,6917.864000000001,95.437,541.883,537.575,0.0
51775.0,STARLINK-3620,PAYLOAD,2022-12-01 15:05:30,15.08839382,0.0003082,53.217,299.4756,28.3459,331.77,7.909e-05,9.7e-06,0.0,0 STARLINK-3620,1 51775U 22017H   22335.62882226  .00000970  00000-0  79090-4 0  9993,2 51775  53.2170 299.4756 0003082  28.3459 331.7700 15.08839382 42342,6917.882,95.438,541.879,537.615,0.0
51775.0,STARLINK-3620,PAYLOAD,2022-12-01 21:27:02,15.08840905,0.0003091,53.2175,298.2864,28.147,331.9688,8.1493e-05,1.009e-05,0.0,0 STARLINK-3620,1 51775U 22017H   22335.89378103  .00001009  00000-0  81493-4 0  9990,2 51775  53.2175 298.2864 0003091  28.1470 331.9688 15.08840905 43830,6917.878000000002,95.437,541.881,537.604,0.0
51775.0,STARLINK-3620,PAYLOAD,2022-12-02 06:59:22,15.08834102,0.0003061,53.2178,296.5026,30.9022,329.215,5.9738e-05,6.62e-06,0.0,0 STARLINK-3620,1 51775U 22017H   22336.29122742  .00000662  00000-0  59738-4 0  9992,2 51775  53.2178 296.5026 0003061  30.9022 329.2150 15.08834102 43897,6917.898,95.438,541.881,537.646,0.0
51775.0,STARLINK-3620,PAYLOAD,2022-12-02 14:56:17,15.08837314,0.000323,53.2185,295.0148,30.8982,329.22,7.4395e-05,8.95e-06,0.0,0 STARLINK-3620,1 51775U 22017H   22336.62242594  .00000895  00000-0  74395-4 0  9991,2 51775  53.2185 295.0148 0003230  30.8982 329.2200 15.08837314 42495,6917.889,95.438,541.988,537.519,0.0
51775.0,STARLINK-3620,PAYLOAD,2022-12-03 03:39:22,15.08838349,0.0003165,53.22,292.6357,33.1705,326.9485,-4.4995e-05,-1.005e-05,0.0,0 STARLINK-3620,1 51775U 22017H   22337.15234926 -.00001005  00000-0 -44995-4 0  9999,2 51775  53.2200 292.6357 0003165  33.1705 326.9485 15.08838349 42571,6917.885,95.438,541.94,537.561,0.0
51775.0,STARLINK-3620,PAYLOAD,2022-12-03 21:08:37,15.08838157,0.0003022,53.2197,289.3641,34.9502,325.1688,-1.5222000000000002e-07,-2.91e-06,0.0,0 STARLINK-3620,1 51775U 22017H   22337.88098805 -.00000291  00000-0 -15222-6 0  9992,2 51775  53.2197 289.3641 0003022  34.9502 325.1688 15.08838157 44138,6917.886,95.438,541.842,537.66,0.0
51775.0,STARLINK-3620,PAYLOAD,2022-12-04 06:40:56,15.08837441,0.0003074,53.2192,287.5805,35.8735,324.2463,5.5388e-05,5.93e-06,0.0,0 STARLINK-3620,1 51775U 22017H   22338.27842720  .00000593  00000-0  55388-4 0  9997,2 51775  53.2192 287.5805 0003074  35.8735 324.2463 15.08837441 42741,6917.888000000001,95.438,541.88,537.627,0.0
51775.0,STARLINK-3620,PAYLOAD,2022-12-05 03:20:56,15.08843425,0.0003168999999999,53.2166,283.7158,31.006,329.1118,0.0001137,1.522e-05,0.0,0 STARLINK-3620,1 51775U 22017H   22339.13954059  .00001522  00000-0  11370-3 0  9997,2 51775  53.2166 283.7158 0003169  31.0060 329.1118 15.08843425 44321,6917.87,95.437,541.927,537.543,0.0
51775.0,STARLINK-3620,PAYLOAD,2022-12-05 12:53:15,15.08842673,0.0003204,53.2171,281.9308,30.4183,329.6994,3.6753e-05,2.96e-06,0.0,0 STARLINK-3620,1 51775U 22017H   22339.53698309  .00000296  00000-0  36753-4 0  9994,2 51775  53.2171 281.9308 0003204  30.4183 329.6994 15.08842673 42939,6917.871999999999,95.437,541.9540000000002,537.521,0.0
51775.0,STARLINK-3620,PAYLOAD,2022-12-06 04:47:06,15.08840465,0.000318,53.2173,278.9573,31.4123,328.7058,4.0457e-05,3.55e-06,0.0,0 STARLINK-3620,1 51775U 22017H   22340.19938371  .00000355  00000-0  40457-4 0  9996,2 51775  53.2173 278.9573 0003180  31.4123 328.7058 15.08840465 44489,6917.879,95.438,541.944,537.544,0.0
